ONEWEB-0674             
1 55833U 23029AP  25190.95499933 -.00000236  00000+0 -67051-3 0  9992
2 55833  87.9042 357.8236 0001925 108.6040 251.5299 13.14500867114459
ONEWEB-0675             
1 55834U 23029AQ  25190.89441664 -.00000001  00000+0 -35809-4 0  9991
2 55834  87.9213  13.0395 0001840  80.0525 280.0815 13.19724289113770
ONEWEB-0720             
1 55835U 23029AR  25190.88652780  .00000027  00000+0  36066-4 0  9996
2 55835  87.9218  13.0377 0002288  92.9358 267.2037 13.19726109113696
ONEWEB-0537             
1 56046U 23043A   25190.82829765  .00000051  00000+0  98973-4 0  9992
2 56046  87.9067 296.9977 0001819  94.9844 265.1494 13.16594407113912
ONEWEB-0538             
1 56047U 23043B   25190.82195678  .00000101  00000+0  23040-3 0  9990
2 56047  87.9055 297.0166 0002095  93.0048 267.1323 13.16594744113923
ONEWEB-0546             
1 56048U 23043C   25190.80928445  .00000026  00000+0  33106-4 0  9996
2 56048  87.9064 296.9948 0001339  89.0880 271.0405 13.16594617113912
ONEWEB-0547             
1 56049U 23043D   25191.25310325 -.00000005  00000+0 -44753-4 0  9998
2 56049  87.9267 312.1820 0002123  95.6748 264.4628 13.21827772113961
ONEWEB-0548             
1 56050U 23043E   25190.75862042  .00000022  00000+0  24173-4 0  9993
2 56050  87.9053 297.0381 0002021 115.4262 244.7078 13.16595645113907
